[{"OBJECT_NAME":"STARLINK-1954","OBJECT_ID":"2021-009H","EPOCH":"2026-03-09T23:20:25.352160","MEAN_MOTION":15.30849174,"ECCENTRICITY":0.00046184,"INCLINATION":53.0574,"RA_OF_ASC_NODE":8.8654,"ARG_OF_PERICENTER":103.3293,"MEAN_ANOMALY":256.8222,"EPHEMERIS_TYPE":0,"CLASSIFICATION_TYPE":"U","NORAD_CAT_ID":47555,"ELEMENT_SET_NO":999,"REV_AT_EPOCH":28100,"BSTAR":0.0022371791,"MEAN_MOTION_DOT":0.00067883,"MEAN_MOTION_DDOT":0},{"OBJECT_NAME":"STARLINK-2738","OBJECT_ID":"2021-044AG","EPOCH":"2026-03-09T18:53:39.417792","MEAN_MOTION":15.30207829,"ECCENTRICITY":0.00013237,"INCLINATION":53.1579,"RA_OF_ASC_NODE":103.5158,"ARG_OF_PERICENTER":95.9871,"MEAN_ANOMALY":264.128,"EPHEMERIS_TYPE":0,"CLASSIFICATION_TYPE":"U","NORAD_CAT_ID":48668,"ELEMENT_SET_NO":999,"REV_AT_EPOCH":26398,"BSTAR":5.8239615e-5,"MEAN_MOTION_DOT":1.366e-5,"MEAN_MOTION_DDOT":0}]
